GAOFEN-5 01             
1 43461U 18043A   26115.17505265  .00000334  00000+0  78755-4 0  9995
2 43461  98.4535  85.6618 0000771 204.1437 155.9727 14.60566730423951
GAOFEN-6                
1 43484U 18048A   26115.35025253  .00000646  00000+0  99560-4 0  9992
2 43484  97.7787 179.9610 0011880 353.6200   6.4857 14.76567278425598
GAOFEN-11 01            
1 43585U 18063A   26115.32389625  .00016319  00000+0  25612-3 0  9994
2 43585  97.1327 182.4034 0004864 149.7747 210.3789 15.53732753432133
ICESAT-2                
1 43613U 18070A   26115.24795061  .00003110  00000+0  11276-3 0  9996
2 43613  92.0020 276.6993 0002348  58.0215 302.1262 15.28305104424377
HYSIS                   
1 43719U 18096A   26115.29333610  .00001186  00000+0  16888-3 0  9999
2 43719  97.9862 182.4476 0000844  77.9414 282.1891 14.78666132399609
KAZSTSAT                
1 43783U 18099AB  26115.05743947  .00000789  00000+0  68321-4 0  9993
2 43783  97.4373 149.3872 0003851 198.8812 161.2270 14.99772073403340
SAUDISAT 5A             
1 43831U 18102A   26115.30846435  .00005798  00000+0  21802-3 0  9993
2 43831  97.3107 177.9190 0008579 330.0277  30.0470 15.27496932407602
SAUDISAT 5B             
1 43833U 18102C   26115.33670574  .00005193  00000+0  19389-3 0  9993
2 43833  97.3209 180.9209 0009358 331.8437  28.2295 15.27782480407728
GAOFEN-10R              
1 44622U 19066A   26115.25576573  .00001136  00000+0  14679-3 0  9995
2 44622  98.0465  68.4662 0004663 322.5534  37.5354 14.82937786354539
CARTOSAT-3              
1 44804U 19081A   26115.26881729  .00002593  00000+0  12601-3 0  9998
2 44804  97.4336 177.9741 0011276 342.6233  17.4614 15.19275013355437
GAOFEN-12 01            
1 44819U 19082A   26115.29274623  .00000374  00000+0  55590-4 0  9997
2 44819  97.8126 123.0674 0001386 128.5450 231.5887 14.80413805346266
CSG-1                   
1 44873U 19092A   26115.32563257  .00000412  00000+0  58296-4 0  9995
2 44873  97.8887 299.6927 0001300  93.2289 266.9073 14.82153155343644
NEMO-HD                 
1 46277U 20061F   26115.24672221  .00010791  00000+0  24256-3 0  9995
2 46277  97.1960 177.7659 0001414 132.8278 227.3090 15.43509197313816
SENTINEL-6A             
1 46984U 20086A   26115.30616725 -.00000055  00000+0  27686-4 0  9995
2 46984  66.0412 244.8850 0007789 270.2915  89.7207 12.80930896253559
GAOFEN-12 02            
1 48079U 21026A   26115.29820243  .00000382  00000+0  57113-4 0  9997
2 48079  97.9932 113.6984 0006009  56.1349 304.0433 14.80252087273932
PLEIADES NEO 3          
1 48268U 21034A   26114.63236059  .00000686  00000+0  93708-4 0  9996
2 48268  97.8934 190.1682 0001362 103.4295 256.7070 14.81679396269720
PLEIADES NEO 4          
1 49070U 21073E   26115.34144727 -.00000776  00000+0 -92066-4 0  9998
2 49070  97.8922 190.8628 0001260  93.7912 266.3445 14.81673502253549
LANDSAT 9               
1 49260U 21088A   26115.18391132  .00000316  00000+0  80043-4 0  9991
2 49260  98.1875 186.2009 0001222 105.3449 254.7884 14.57119718243281
CSG-2                   
1 51444U 22008A   26115.29185848  .00000321  00000+0  46883-4 0  9998
2 51444  97.8892 299.6555 0001443  82.3910 277.7467 14.82150626228758
GAOFEN-12 03            
1 52912U 22069A   26115.25021319  .00000968  00000+0  13488-3 0  9995
2 52912  97.8336   4.4398 0001348  45.8809 314.2513 14.79946565206783
SWOT                    
1 54754U 22173A   26115.25503870  .00000021  00000+0  16007-4 0  9995
2 54754  77.6075 106.7639 0000768 156.3238 203.7950 14.00170392171743
GAOFEN-12 04            
1 57654U 23123A   26115.20596024  .00000842  00000+0  11785-3 0  9999
2 57654  97.9132  33.9867 0001275  88.9429 271.1929 14.80121499144796
PARS 1                  
1 59065U 24039Q   26115.34071963  .00012237  00000+0  26460-3 0  9996
2 59065  97.4802  94.6517 0007836 315.5937  44.4682 15.44612771120487
RESURS-P 4              
1 59371U 24061A   26115.29056576  .00003288  00000+0  10952-3 0  9993
2 59371  97.2714  64.1365 0002667  62.4925 297.6587 15.31813788115669
LEGION 1                
1 59625U 24081A   26115.24973245  .00004141  00000+0  21432-3 0  9997
2 59625  97.5022 193.6661 0009686 194.8631 165.2318 15.16747757109519
LEGION 2                
1 59626U 24081B   26115.28345846  .00004600  00000+0  23602-3 0  9993
2 59626  97.5023 193.7885 0011263 168.0165 192.1339 15.16979106109527
ALOS-4 (DAICHI-4)       
1 60182U 24123A   26115.26959682  .00000704  00000+0  10117-3 0  9994
2 60182  97.9205 213.1938 0001642 101.5582 258.5814 14.79464573 98058
LEGION 3                
1 60452U 24146A   26115.27783048  .00004795  00000+0  26134-3 0  9991
2 60452  45.0019 314.2299 0008640 224.3206 135.6982 15.15633139 93996
LEGION 4                
1 60453U 24146B   26115.07850854  .00004517  00000+0  24710-3 0  9990
2 60453  45.0023  47.1473 0013957  12.2299 347.8916 15.15585600 92814
SENTINEL-2C             
1 60989U 24157A   26115.16556333  .00000103  00000+0  56046-4 0  9996
2 60989  98.5634 190.7034 0001468 103.2926 256.8421 14.30816105 85409
IONOSFERA-M 1           
1 61735U 24199A   26115.23817969  .00000051  00000+0  42244-4 0  9992
2 61735  98.7246 348.9504 0000543  18.8060 341.3138 14.22744167120170
IONOSFERA-M 2           
1 61736U 24199B   26115.27259531  .00000044  00000+0  39456-4 0  9995
2 61736  98.7244 348.8956 0001918  98.9114 261.2282 14.22746979123306
BIOMASS                 
1 63772U 25090A   26115.12401934  .00001025  00000+0  18921-3 0  9991
2 63772  98.0752 303.2061 0001340  86.6346 273.5011 14.67536112 52905
GOSAT-GW (IBUKI GW)     
1 64694U 25141A   26114.53135333  .00000991  00000+0  18320-3 0  9997
2 64694  98.0549  52.7278 0001406  81.6853 278.4511 14.67554948 43973
IONOSFERA-M 3           
1 64876U 25155A   26115.31331564  .00000056  00000+0  45094-4 0  9996
2 64876  98.5994  78.5617 0002007  46.7979 313.3366 14.21476860 38894
IONOSFERA-M 4           
1 64877U 25155B   26115.27784426  .00000058  00000+0  46105-4 0  9997
2 64877  98.5992  78.4451 0001433  56.4730 303.6584 14.21478817 38880
MICROCARB               
1 64899U 25156A   26115.20733700  .00000538  00000+0  92880-4 0  9998
2 64899  97.9838 193.2900 0017747  82.8221 277.5003 14.72267841 40173
CO3D 3                  
1 64900U 25156B   26115.26610867  .00004262  00000+0  19994-3 0  9997
2 64900  97.4323 194.7194 0001232  45.0513 315.0822 15.20194282 41493
CO3D 4                  
1 64901U 25156C   26115.26627616  .00004323  00000+0  20265-3 0  9999
2 64901  97.4322 194.7197 0001936 105.6722 254.4727 15.20212240 41497
CO3D 2                  
1 64902U 25156D   26115.29874251  .00004886  00000+0  22865-3 0  9994
2 64902  97.4322 194.6504 0000648  61.7574 298.3727 15.20209104 41497
CO3D 1                  
1 64903U 25156E   26103.64843334  .00003151  00000+0  12932-3 0  9997
2 64903  98.0928 182.3847 0110033   5.8142 354.4339 15.19681462 39726
SENTINEL-6B             
1 66514U 25264A   26115.30651114 -.00000050  00000+0  49774-4 0  9997
2 66514  66.0411 245.0105 0007935 269.7079  90.3027 12.80930822 20393
CSG-3                   
1 67304U 26001A   26115.27077931  .00000294  00000+0  43513-4 0  9994
2 67304  97.8888 299.6382 0001392  88.1707 271.9666 14.82171453 16623
